COMMENT,ORIGINATOR,NORAD_CAT_ID,OBJECT_NAME,OBJECT_TYPE,CLASSIFICATION_TYPE,INTLDES,EPOCH,EPOCH_MICROSECONDS,MEAN_MOTION,ECCENTRICITY,INCLINATION,RA_OF_ASC_NODE,ARG_OF_PERICENTER,MEAN_ANOMALY,EPHEMERIS_TYPE,ELEMENT_SET_NO,REV_AT_EPOCH,BSTAR,MEAN_MOTION_DOT,MEAN_MOTION_DDOT,FILE,TLE_LINE0,TLE_LINE1,TLE_LINE2,OBJECT_ID,OBJECT_NUMBER,SEMIMAJOR_AXIS,PERIOD,APOGEE,PERIGEE,DECAYED,date
GENERATED VIA SPACETRACK.ORG API,18 SPCS,48890,SPACEBEE-104,PAYLOAD,U,21059M,2023/2/12 4:35,126976,15.22992282,0.0007999,97.5772,177.9491,349.9152,10.1923,0,999,9031,0.0017928,0.00042314,0,3786722,0 SPACEBEE-104,1 48890U 21059M   23043.19130934  .00042314  00000-0  17928-2 0  9991,2 48890  97.5772 177.9491 0007999 349.9152  10.1923 15.22992282 90314,2021-059M,48890,6874.958,94.551,502.322,491.324,0,2023/4/3
GENERATED VIA SPACETRACK.ORG API,18 SPCS,48890,SPACEBEE-104,PAYLOAD,U,21059M,2023/2/12 7:44,418752,15.23002531,0.0008012,97.5773,178.0817,349.4979,10.6089,0,999,9033,0.0017337,0.00040922,0,3787692,0 SPACEBEE-104,1 48890U 21059M   23043.32271318  .00040922  00000-0  17337-2 0  9995,2 48890  97.5773 178.0817 0008012 349.4979  10.6089 15.23002531 90338,2021-059M,48890,6874.927,94.55,502.3,491.284,0,2023/4/4
GENERATED VIA SPACETRACK.ORG API,18 SPCS,48890,SPACEBEE-104,PAYLOAD,U,21059M,2023/2/13 2:40,361056,15.23067947,0.0008032,97.5772,178.8775,347.2589,12.8443,0,999,9045,0.0017539,0.00041483,0,3789366,0 SPACEBEE-104,1 48890U 21059M   23044.11111529  .00041483  00000-0  17539-2 0  9997,2 48890  97.5772 178.8775 0008032 347.2589  12.8443 15.23067947 90456,2021-059M,48890,6874.73,94.546,502.117,491.073,0,2023/4/5
GENERATED VIA SPACETRACK.ORG API,18 SPCS,48890,SPACEBEE-104,PAYLOAD,U,21059M,2023/2/14 2:19,749088,15.23147229,0.0007973,97.5771,179.8721,344.2567,15.842,0,999,9060,0.0017288,0.00040981,0,3790189,0 SPACEBEE-104,1 48890U 21059M   23045.09657117  .00040981  00000-0  17288-2 0  9996,2 48890  97.5771 179.8721 0007973 344.2567  15.8420 15.23147229 90600,2021-059M,48890,6874.492,94.541,501.838,490.876,0,2023/4/6
GENERATED VIA SPACETRACK.ORG API,18 SPCS,48890,SPACEBEE-104,PAYLOAD,U,21059M,2023/2/14 14:55,843648,15.23186364,0.000795,97.5771,180.4026,342.4729,17.6232,0,999,9068,0.0016536,0.00039231,0,3791349,0 SPACEBEE-104,1 48890U 21059M   23045.62212782  .00039231  00000-0  16536-2 0  9991,2 48890  97.5771 180.4026 0007950 342.4729  17.6232 15.23186364 90683,2021-059M,48890,6874.374,94.539,501.704,490.774,0,2023/4/7
GENERATED VIA SPACETRACK.ORG API,18 SPCS,48890,SPACEBEE-104,PAYLOAD,U,21059M,2023/2/15 3:32,773536,15.23223579,0.0007963,97.5769,180.933,340.2023,19.8903,0,999,9076,0.0015616,0.00037074,0,3792339,0 SPACEBEE-104,1 48890U 21059M   23046.14767099  .00037074  00000-0  15616-2 0  9996,2 48890  97.5769 180.9330 0007963 340.2023  19.8903 15.23223579 90768,2021-059M,48890,6874.262,94.536,501.601,490.653,0,2023/4/8
GENERATED VIA SPACETRACK.ORG API,18 SPCS,48890,SPACEBEE-104,PAYLOAD,U,21059M,2023/2/15 8:16,45760,15.2324185,0.0007966,97.5768,181.132,339.4256,20.6658,0,999,9079,0.001687,0.00040095,0,3793706,0 SPACEBEE-104,1 48890U 21059M   23046.34474590  .00040095  00000-0  16870-2 0  9999,2 48890  97.5768 181.1320 0007966 339.4256  20.6658 15.23241850 90792,2021-059M,48890,6874.207,94.535,501.548,490.596,0,2023/4/9
GENERATED VIA SPACETRACK.ORG API,18 SPCS,48890,SPACEBEE-104,PAYLOAD,U,21059M,2023/2/15 16:09,436800,15.23273428,0.0007966,97.5767,181.4636,338.1126,21.9769,0,999,9084,0.0020074,0.00047818,0,3794021,0 SPACEBEE-104,1 48890U 21059M   23046.67319950  .00047818  00000-0  20074-2 0  9994,2 48890  97.5767 181.4636 0007966 338.1126  21.9769 15.23273428 90845,2021-059M,48890,6874.112,94.533,501.453,490.501,0,2023/4/10
GENERATED VIA SPACETRACK.ORG API,18 SPCS,48890,SPACEBEE-104,PAYLOAD,U,21059M,2023/2/15 20:53,156928,15.23292294,0.0007975,97.5767,181.6625,337.2788,22.8095,0,999,9087,0.0019929,0.00047497,0,3795153,0 SPACEBEE-104,1 48890U 21059M   23046.87026802  .00047497  00000-0  19929-2 0  9997,2 48890  97.5767 181.6625 0007975 337.2788  22.8095 15.23292294 90876,2021-059M,48890,6874.055,94.532,501.402,490.438,0,2023/4/11
GENERATED VIA SPACETRACK.ORG API,18 SPCS,48890,SPACEBEE-104,PAYLOAD,U,21059M,2023/2/16 7:55,371648,15.2333615,0.0008009,97.5768,182.1267,335.7074,24.3784,0,999,9094,0.0019871,0.0004742,0,3798293,0 SPACEBEE-104,1 48890U 21059M   23047.33008532  .00047420  00000-0  19871-2 0  9991,2 48890  97.5768 182.1267 0008009 335.7074  24.3784 15.23336150 90945,2021-059M,48890,6873.923,94.529,501.294,490.283,0,2023/4/12
GENERATED VIA SPACETRACK.ORG API,18 SPCS,48890,SPACEBEE-104,PAYLOAD,U,21059M,2023/2/16 18:57,451072,15.23380076,0.0007993,97.5769,182.591,334.0579,26.0256,0,999,9101,0.0019675,0.00047009,0,3798554,0 SPACEBEE-104,1 48890U 21059M   23047.78988948  .00047009  00000-0  19675-2 0  9993,2 48890  97.5769 182.5910 0007993 334.0579  26.0256 15.23380076 91016,2021-059M,48890,6873.791,94.527,501.15,490.162,0,2023/4/13
GENERATED VIA SPACETRACK.ORG API,18 SPCS,48890,SPACEBEE-104,PAYLOAD,U,21059M,2023/2/16 22:06,877824,15.23389679,0.0008006,97.577,182.7237,333.6067,26.4761,0,999,9103,0.0018706,0.0004469,0,3799178,0 SPACEBEE-104,1 48890U 21059M   23047.92126016  .00044690  00000-0  18706-2 0  9996,2 48890  97.5770 182.7237 0008006 333.6067  26.4761 15.23389679 91030,2021-059M,48890,6873.762,94.526,501.13,490.124,0,2023/4/14
GENERATED VIA SPACETRACK.ORG API,18 SPCS,48890,SPACEBEE-104,PAYLOAD,U,21059M,2023/2/17 7:34,647456,15.23416329,0.000801,97.5771,183.1217,332.2596,27.8212,0,999,9109,0.0015122,0.000361,0,3801408,0 SPACEBEE-104,1 48890U 21059M   23048.31536629  .00036100  00000-0  15122-2 0  9991,2 48890  97.5771 183.1217 0008010 332.2596  27.8212 15.23416329 91096,2021-059M,48890,6873.682,94.524,501.053,490.041,0,2023/4/15
GENERATED VIA SPACETRACK.ORG API,18 SPCS,48890,SPACEBEE-104,PAYLOAD,U,21059M,2023/2/17 7:34,647456,15.23416329,0.000801,97.5771,183.1217,332.2596,27.8212,0,999,9109,0.0015122,0.000361,0,3802730,0 SPACEBEE-104,1 48890U 21059M   23048.31536629  .00036100  00000-0  15122-2 0  9991,2 48890  97.5771 183.1217 0008010 332.2596  27.8212 15.23416329 91096,2021-059M,48890,6873.682,94.524,501.053,490.041,0,2023/4/16
GENERATED VIA SPACETRACK.ORG API,18 SPCS,48890,SPACEBEE-104,PAYLOAD,U,21059M,2023/2/17 20:10,746560,15.23450255,0.0008031,97.5775,183.6525,330.9065,29.1723,0,999,9117,0.0012426,0.00029655,0,3804075,0 SPACEBEE-104,1 48890U 21059M   23048.84083040  .00029655  00000-0  12426-2 0  9994,2 48890  97.5775 183.6525 0008031 330.9065  29.1723 15.23450255 91173,2021-059M,48890,6873.58,94.522,500.965,489.925,0,2023/4/17
GENERATED VIA SPACETRACK.ORG API,18 SPCS,48890,SPACEBEE-104,PAYLOAD,U,21059M,2023/2/18 8:47,869344,15.23481302,0.0007983,97.5776,184.1832,328.9945,31.0819,0,999,9125,0.0011663,0.00027848,0,3805817,0 SPACEBEE-104,1 48890U 21059M   23049.36628321  .00027848  00000-0  11663-2 0  9993,2 48890  97.5776 184.1832 0007983 328.9945  31.0819 15.23481302 91254,2021-059M,48890,6873.487,94.52,500.839,489.864,0,2023/4/18
GENERATED VIA SPACETRACK.ORG API,18 SPCS,48890,SPACEBEE-104,PAYLOAD,U,21059M,2023/2/18 15:05,80384,15.23496904,0.0007935,97.578,184.4484,327.8519,32.2232,0,999,9129,0.0011905,0.00028443,0,3807124,0 SPACEBEE-104,1 48890U 21059M   23049.62900556  .00028443  00000-0  11905-2 0  9996,2 48890  97.5780 184.4484 0007935 327.8519  32.2232 15.23496904 91297,2021-059M,48890,6873.44,94.519,500.759,489.851,0,2023/4/19
GENERATED VIA SPACETRACK.ORG API,18 SPCS,48890,SPACEBEE-104,PAYLOAD,U,21059M,2023/2/19 14:44,245824,15.23549985,0.0007931,97.5782,185.4435,323.9808,36.0893,0,999,9144,0.0010964,0.00026222,0,3811610,0 SPACEBEE-104,1 48890U 21059M   23050.61419266  .00026222  00000-0  10964-2 0  9997,2 48890  97.5782 185.4435 0007931 323.9808  36.0893 15.23549985 91440,2021-059M,48890,6873.28,94.516,500.596,489.694,0,2023/4/20
GENERATED VIA SPACETRACK.ORG API,18 SPCS,48890,SPACEBEE-104,PAYLOAD,U,21059M,2023/2/19 14:44,245824,15.23549985,0.0007931,97.5782,185.4435,323.9808,36.0893,0,999,9144,0.0010964,0.00026222,0,3812029,0 SPACEBEE-104,1 48890U 21059M   23050.61419266  .00026222  00000-0  10964-2 0  9997,2 48890  97.5782 185.4435 0007931 323.9808  36.0893 15.23549985 91440,2021-059M,48890,6873.28,94.516,500.596,489.694,0,2023/4/21
GENERATED VIA SPACETRACK.ORG API,18 SPCS,48890,SPACEBEE-104,PAYLOAD,U,21059M,2023/2/20 8:04,808320,15.2358968,0.0007984,97.5784,186.1733,321.1443,38.9218,0,999,9155,0.0011218,0.00026866,0,3815761,0 SPACEBEE-104,1 48890U 21059M   23051.33664130  .00026866  00000-0  11218-2 0  9996,2 48890  97.5784 186.1733 0007984 321.1443  38.9218 15.23589680 91554,2021-059M,48890,6873.161,94.514,500.513,489.538,0,2023/4/22
GENERATED VIA SPACETRACK.ORG API,18 SPCS,48890,SPACEBEE-104,PAYLOAD,U,21059M,2023/2/20 22:15,173888,15.23622671,0.0007941,97.5785,186.7701,318.9248,41.1389,0,999,9164,0.001157,0.00027741,0,3817848,0 SPACEBEE-104,1 48890U 21059M   23051.92772192  .00027741  00000-0  11570-2 0  9993,2 48890  97.5785 186.7701 0007941 318.9248  41.1389 15.23622671 91649,2021-059M,48890,6873.061,94.512,500.384,489.469,0,2023/4/23
GENERATED VIA SPACETRACK.ORG API,18 SPCS,48890,SPACEBEE-104,PAYLOAD,U,21059M,2023/2/21 7:43,705088,15.236495,0.0007985,97.5787,187.1684,317.7042,42.3578,0,999,9170,0.0012936,0.00031064,0,3819803,0 SPACEBEE-104,1 48890U 21059M   23052.32176742  .00031064  00000-0  12936-2 0  9997,2 48890  97.5787 187.1684 0007985 317.7042  42.3578 15.23649500 91703,2021-059M,48890,6872.981,94.51,500.334,489.358,0,2023/4/24
GENERATED VIA SPACETRACK.ORG API,18 SPCS,48890,SPACEBEE-104,PAYLOAD,U,21059M,2023/2/21 21:54,913248,15.23690133,0.0007915,97.579,187.7653,315.5598,44.5003,0,999,9179,0.0013496,0.00032456,0,3821329,0 SPACEBEE-104,1 48890U 21059M   23052.91282307  .00032456  00000-0  13496-2 0  9995,2 48890  97.5790 187.7653 0007915 315.5598  44.5003 15.23690133 91798,2021-059M,48890,6872.859,94.507,500.163,489.284,0,2023/4/25
